<?xml version="1.0" encoding="UTF-8"?>
<ndm xmlns:xsi="http://www.w3.org/2001/XMLSchema-instance" xsi:noNamespaceSchemaLocation="https://sanaregistry.org/r/ndmxml_unqualified/ndmxml-2.0.0-master-2.0.xsd">
<omm id="CCSDS_OMM_VERS" version="2.0">
<header><CREATION_DATE/><ORIGINATOR/></header><body><segment><metadata><OBJECT_NAME>ONEWEB-0032</OBJECT_NAME><OBJECT_ID>2020-008L</OBJECT_ID><CENTER_NAME>EARTH</CENTER_NAME><REF_FRAME>TEME</REF_FRAME><TIME_SYSTEM>UTC</TIME_SYSTEM><MEAN_ELEMENT_THEORY>SGP4</MEAN_ELEMENT_THEORY></metadata><data><meanElements><EPOCH>2023-12-29T14:15:37.960704</EPOCH><MEAN_MOTION>13.10372349</MEAN_MOTION><ECCENTRICITY>.0001417</ECCENTRICITY><INCLINATION>87.8893</INCLINATION><RA_OF_ASC_NODE>215.1827</RA_OF_ASC_NODE><ARG_OF_PERICENTER>91.0068</ARG_OF_PERICENTER><MEAN_ANOMALY>269.1221</MEAN_ANOMALY></meanElements><tleParameters><EPHEMERIS_TYPE>0</EPHEMERIS_TYPE><CLASSIFICATION_TYPE>U</CLASSIFICATION_TYPE><NORAD_CAT_ID>45141</NORAD_CAT_ID><ELEMENT_SET_NO>999</ELEMENT_SET_NO><REV_AT_EPOCH>19121</REV_AT_EPOCH><BSTAR>.13842E-2</BSTAR><MEAN_MOTION_DOT>.496E-5</MEAN_MOTION_DOT><MEAN_MOTION_DDOT>0</MEAN_MOTION_DDOT></tleParameters></data></segment></body></omm>
<omm id="CCSDS_OMM_VERS" version="2.0">
<header><CREATION_DATE/><ORIGINATOR/></header><body><segment><metadata><OBJECT_NAME>ONEWEB-0033</OBJECT_NAME><OBJECT_ID>2020-008M</OBJECT_ID><CENTER_NAME>EARTH</CENTER_NAME><REF_FRAME>TEME</REF_FRAME><TIME_SYSTEM>UTC</TIME_SYSTEM><MEAN_ELEMENT_THEORY>SGP4</MEAN_ELEMENT_THEORY></metadata><data><meanElements><EPOCH>2023-12-29T13:38:11.444928</EPOCH><MEAN_MOTION>13.10375911</MEAN_MOTION><ECCENTRICITY>.0001715</ECCENTRICITY><INCLINATION>87.8898</INCLINATION><RA_OF_ASC_NODE>215.1960</RA_OF_ASC_NODE><ARG_OF_PERICENTER>88.6556</ARG_OF_PERICENTER><MEAN_ANOMALY>271.4768</MEAN_ANOMALY></meanElements><tleParameters><EPHEMERIS_TYPE>0</EPHEMERIS_TYPE><CLASSIFICATION_TYPE>U</CLASSIFICATION_TYPE><NORAD_CAT_ID>45142</NORAD_CAT_ID><ELEMENT_SET_NO>999</ELEMENT_SET_NO><REV_AT_EPOCH>19026</REV_AT_EPOCH><BSTAR>.26405E-3</BSTAR><MEAN_MOTION_DOT>.105E-5</MEAN_MOTION_DOT><MEAN_MOTION_DDOT>0</MEAN_MOTION_DDOT></tleParameters></data></segment></body></omm>
<omm id="CCSDS_OMM_VERS" version="2.0">
<header><CREATION_DATE/><ORIGINATOR/></header><body><segment><metadata><OBJECT_NAME>ONEWEB-0035</OBJECT_NAME><OBJECT_ID>2020-008N</OBJECT_ID><CENTER_NAME>EARTH</CENTER_NAME><REF_FRAME>TEME</REF_FRAME><TIME_SYSTEM>UTC</TIME_SYSTEM><MEAN_ELEMENT_THEORY>SGP4</MEAN_ELEMENT_THEORY></metadata><data><meanElements><EPOCH>2023-12-29T14:24:58.539456</EPOCH><MEAN_MOTION>13.10372107</MEAN_MOTION><ECCENTRICITY>.0001557</ECCENTRICITY><INCLINATION>87.8898</INCLINATION><RA_OF_ASC_NODE>215.1618</RA_OF_ASC_NODE><ARG_OF_PERICENTER>89.2328</ARG_OF_PERICENTER><MEAN_ANOMALY>270.8978</MEAN_ANOMALY></meanElements><tleParameters><EPHEMERIS_TYPE>0</EPHEMERIS_TYPE><CLASSIFICATION_TYPE>U</CLASSIFICATION_TYPE><NORAD_CAT_ID>45143</NORAD_CAT_ID><ELEMENT_SET_NO>999</ELEMENT_SET_NO><REV_AT_EPOCH>18999</REV_AT_EPOCH><BSTAR>.70084E-3</BSTAR><MEAN_MOTION_DOT>.257E-5</MEAN_MOTION_DOT><MEAN_MOTION_DDOT>0</MEAN_MOTION_DDOT></tleParameters></data></segment></body></omm>
<omm id="CCSDS_OMM_VERS" version="2.0">
<header><CREATION_DATE/><ORIGINATOR/></header><body><segment><metadata><OBJECT_NAME>ONEWEB-0036</OBJECT_NAME><OBJECT_ID>2020-008P</OBJECT_ID><CENTER_NAME>EARTH</CENTER_NAME><REF_FRAME>TEME</REF_FRAME><TIME_SYSTEM>UTC</TIME_SYSTEM><MEAN_ELEMENT_THEORY>SGP4</MEAN_ELEMENT_THEORY></metadata><data><meanElements><EPOCH>2023-12-29T14:10:55.983072</EPOCH><MEAN_MOTION>13.10373736</MEAN_MOTION><ECCENTRICITY>.0001243</ECCENTRICITY><INCLINATION>87.8896</INCLINATION><RA_OF_ASC_NODE>215.1278</RA_OF_ASC_NODE><ARG_OF_PERICENTER>79.1010</ARG_OF_PERICENTER><MEAN_ANOMALY>281.0257</MEAN_ANOMALY></meanElements><tleParameters><EPHEMERIS_TYPE>0</EPHEMERIS_TYPE><CLASSIFICATION_TYPE>U</CLASSIFICATION_TYPE><NORAD_CAT_ID>45144</NORAD_CAT_ID><ELEMENT_SET_NO>999</ELEMENT_SET_NO><REV_AT_EPOCH>19042</REV_AT_EPOCH><BSTAR>.16885E-2</BSTAR><MEAN_MOTION_DOT>.602E-5</MEAN_MOTION_DOT><MEAN_MOTION_DDOT>0</MEAN_MOTION_DDOT></tleParameters></data></segment></body></omm>
<omm id="CCSDS_OMM_VERS" version="2.0">
<header><CREATION_DATE/><ORIGINATOR/></header><body><segment><metadata><OBJECT_NAME>ONEWEB-0038</OBJECT_NAME><OBJECT_ID>2020-008Q</OBJECT_ID><CENTER_NAME>EARTH</CENTER_NAME><REF_FRAME>TEME</REF_FRAME><TIME_SYSTEM>UTC</TIME_SYSTEM><MEAN_ELEMENT_THEORY>SGP4</MEAN_ELEMENT_THEORY></metadata><data><meanElements><EPOCH>2023-12-29T15:00:22.554720</EPOCH><MEAN_MOTION>13.11416100</MEAN_MOTION><ECCENTRICITY>.0001267</ECCENTRICITY><INCLINATION>87.8960</INCLINATION><RA_OF_ASC_NODE>200.0322</RA_OF_ASC_NODE><ARG_OF_PERICENTER>126.6952</ARG_OF_PERICENTER><MEAN_ANOMALY>233.4292</MEAN_ANOMALY></meanElements><tleParameters><EPHEMERIS_TYPE>0</EPHEMERIS_TYPE><CLASSIFICATION_TYPE>U</CLASSIFICATION_TYPE><NORAD_CAT_ID>45145</NORAD_CAT_ID><ELEMENT_SET_NO>999</ELEMENT_SET_NO><REV_AT_EPOCH>19229</REV_AT_EPOCH><BSTAR>.14548E-2</BSTAR><MEAN_MOTION_DOT>.528E-5</MEAN_MOTION_DOT><MEAN_MOTION_DDOT>0</MEAN_MOTION_DDOT></tleParameters></data></segment></body></omm>
<omm id="CCSDS_OMM_VERS" version="2.0">
<header><CREATION_DATE/><ORIGINATOR/></header><body><segment><metadata><OBJECT_NAME>ONEWEB-0039</OBJECT_NAME><OBJECT_ID>2020-008R</OBJECT_ID><CENTER_NAME>EARTH</CENTER_NAME><REF_FRAME>TEME</REF_FRAME><TIME_SYSTEM>UTC</TIME_SYSTEM><MEAN_ELEMENT_THEORY>SGP4</MEAN_ELEMENT_THEORY></metadata><data><meanElements><EPOCH>2023-12-29T15:32:48.511680</EPOCH><MEAN_MOTION>13.10377091</MEAN_MOTION><ECCENTRICITY>.0000937</ECCENTRICITY><INCLINATION>87.8903</INCLINATION><RA_OF_ASC_NODE>215.1314</RA_OF_ASC_NODE><ARG_OF_PERICENTER>78.4291</ARG_OF_PERICENTER><MEAN_ANOMALY>281.6942</MEAN_ANOMALY></meanElements><tleParameters><EPHEMERIS_TYPE>0</EPHEMERIS_TYPE><CLASSIFICATION_TYPE>U</CLASSIFICATION_TYPE><NORAD_CAT_ID>45146</NORAD_CAT_ID><ELEMENT_SET_NO>999</ELEMENT_SET_NO><REV_AT_EPOCH>19100</REV_AT_EPOCH><BSTAR>.70622E-3</BSTAR><MEAN_MOTION_DOT>.259E-5</MEAN_MOTION_DOT><MEAN_MOTION_DDOT>0</MEAN_MOTION_DDOT></tleParameters></data></segment></body></omm>
<omm id="CCSDS_OMM_VERS" version="2.0">
<header><CREATION_DATE/><ORIGINATOR/></header><body><segment><metadata><OBJECT_NAME>ONEWEB-0040</OBJECT_NAME><OBJECT_ID>2020-008S</OBJECT_ID><CENTER_NAME>EARTH</CENTER_NAME><REF_FRAME>TEME</REF_FRAME><TIME_SYSTEM>UTC</TIME_SYSTEM><MEAN_ELEMENT_THEORY>SGP4</MEAN_ELEMENT_THEORY></metadata><data><meanElements><EPOCH>2023-12-29T15:23:27.330720</EPOCH><MEAN_MOTION>13.10360780</MEAN_MOTION><ECCENTRICITY>.0002105</ECCENTRICITY><INCLINATION>87.8909</INCLINATION><RA_OF_ASC_NODE>215.1228</RA_OF_ASC_NODE><ARG_OF_PERICENTER>102.1990</ARG_OF_PERICENTER><MEAN_ANOMALY>257.9373</MEAN_ANOMALY></meanElements><tleParameters><EPHEMERIS_TYPE>0</EPHEMERIS_TYPE><CLASSIFICATION_TYPE>U</CLASSIFICATION_TYPE><NORAD_CAT_ID>45147</NORAD_CAT_ID><ELEMENT_SET_NO>999</ELEMENT_SET_NO><REV_AT_EPOCH>19071</REV_AT_EPOCH><BSTAR>.85217E-2</BSTAR><MEAN_MOTION_DOT>.2988E-4</MEAN_MOTION_DOT><MEAN_MOTION_DDOT>0</MEAN_MOTION_DDOT></tleParameters></data></segment></body></omm>
<omm id="CCSDS_OMM_VERS" version="2.0">
<header><CREATION_DATE/><ORIGINATOR/></header><body><segment><metadata><OBJECT_NAME>ONEWEB-0041</OBJECT_NAME><OBJECT_ID>2020-008T</OBJECT_ID><CENTER_NAME>EARTH</CENTER_NAME><REF_FRAME>TEME</REF_FRAME><TIME_SYSTEM>UTC</TIME_SYSTEM><MEAN_ELEMENT_THEORY>SGP4</MEAN_ELEMENT_THEORY></metadata><data><meanElements><EPOCH>2023-12-29T13:43:00.688800</EPOCH><MEAN_MOTION>13.48433650</MEAN_MOTION><ECCENTRICITY>.0015965</ECCENTRICITY><INCLINATION>87.9414</INCLINATION><RA_OF_ASC_NODE>191.0239</RA_OF_ASC_NODE><ARG_OF_PERICENTER>296.3876</ARG_OF_PERICENTER><MEAN_ANOMALY>63.5634</MEAN_ANOMALY></meanElements><tleParameters><EPHEMERIS_TYPE>0</EPHEMERIS_TYPE><CLASSIFICATION_TYPE>U</CLASSIFICATION_TYPE><NORAD_CAT_ID>45148</NORAD_CAT_ID><ELEMENT_SET_NO>999</ELEMENT_SET_NO><REV_AT_EPOCH>19667</REV_AT_EPOCH><BSTAR>.12319E-3</BSTAR><MEAN_MOTION_DOT>.9E-6</MEAN_MOTION_DOT><MEAN_MOTION_DDOT>0</MEAN_MOTION_DDOT></tleParameters></data></segment></body></omm>

</ndm>
