ONEWEB-0032             
1 45141U 20008L   23363.59418936  .00000496  00000+0  13842-2 0  9995
2 45141  87.8893 215.1827 0001417  91.0068 269.1221 13.10372349191213
ONEWEB-0033             
1 45142U 20008M   23363.56818802  .00000105  00000+0  26405-3 0  9996
2 45142  87.8898 215.1960 0001715  88.6556 271.4768 13.10375911190266
ONEWEB-0035             
1 45143U 20008N   23363.60067754  .00000257  00000+0  70084-3 0  9994
2 45143  87.8898 215.1618 0001557  89.2328 270.8978 13.10372107189993
ONEWEB-0036             
1 45144U 20008P   23363.59092573  .00000602  00000+0  16885-2 0  9992
2 45144  87.8896 215.1278 0001243  79.1010 281.0257 13.10373736190425
ONEWEB-0038             
1 45145U 20008Q   23363.62526105  .00000528  00000+0  14548-2 0  9991
2 45145  87.8960 200.0322 0001267 126.6952 233.4292 13.11416100192291
ONEWEB-0039             
1 45146U 20008R   23363.64778370  .00000259  00000+0  70622-3 0  9994
2 45146  87.8903 215.1314 0000937  78.4291 281.6942 13.10377091191009
ONEWEB-0040             
1 45147U 20008S   23363.64128855  .00002988  00000+0  85217-2 0  9998
2 45147  87.8909 215.1228 0002105 102.1990 257.9373 13.10360780190718
ONEWEB-0041             
1 45148U 20008T   23363.57153575  .00000090  00000+0  12319-3 0  9994
2 45148  87.9414 191.0239 0015965 296.3876  63.5634 13.48433650196672
